     2.10           NAVIGATION DATA                         RINEX VERSION / TYPE
GS10 V12.10                             2023 12 09 23:59    PGM / RUN BY / DATE 
    1.6764D-08 -1.4901D-08 -5.9605D-08  1.7881D-07          ION ALPHA           
    1.2902D+05 -1.8022D+05  6.5536D+04  1.3107D+05          ION BETA            
   -9.313225746155D-10-8.881784197001D-15   233472     2292 DELTA-UTC: A0,A1,T,W
    18                                                      LEAP SECONDS        
                                                            END OF HEADER       
 1 23 10 04 10 00  0.0 1.642126590014D-04-5.684341886081D-13 0.000000000000D+00
    8.900000000000D+01-7.621875000000D+01 3.854803425178D-09 2.375136414925D+00
   -4.077330231667D-06 1.287202665117D-02 5.519017577171D-06 5.153635950089D+03
    2.952000000000D+05-4.284083843231D-08 1.577284187075D-02-2.793967723846D-07
    9.906633999642D-01 2.878125000000D+02 9.918110255503D-01-7.635675199378D-09
   -6.500270762369D-11 1.000000000000D+00 2.282000000000D+03 0.000000000000D+00
    2.800000000000D+00 6.300000000000D+01 5.122274160385D-09 8.900000000000D+01
    2.913300000000D+05 0.000000000000D+00
 2 23 12 10 00 00  0.0-5.177496932447D-04 5.343281372916D-12 0.000000000000D+00
    6.000000000000D+01-1.065937500000D+02 4.352324148913D-09 2.096438962309D+00
   -5.614012479782D-06 1.624141749926D-02 4.198402166367D-06 5.153911815643D+03
    0.000000000000D+00 2.160668373108D-07-1.336221889314D+00-8.381903171539D-08
    9.674207008868D-01 2.948750000000D+02-1.293145257056D+00-7.938544957976D-09
   -4.435899058715D-10 1.000000000000D+00 2.292000000000D+03 0.000000000000D+00
    2.000000000000D+00 0.000000000000D+00-1.769512891769D-08 6.000000000000D+01
   -6.930000000000D+03 0.000000000000D+00
 3 23 12 09 18 00  0.0 4.264712333679D-05 2.728484105319D-11 0.000000000000D+00
    4.300000000000D+01-3.037500000000D+01 3.773371461782D-09 1.505550057574D+00
   -1.592561602592D-06 5.051439395174D-03 1.067109405994D-05 5.153554193497D+03
    5.832000000000D+05-8.009374141693D-08-8.385222165018D-02 1.676380634308D-08
    9.822566885566D-01 1.835625000000D+02 1.109360674239D+00-7.643175511796D-09
    4.843058875699D-10 1.000000000000D+00 2.291000000000D+03 0.000000000000D+00
    2.000000000000D+00 0.000000000000D+00 1.862645149231D-09 4.300000000000D+01
    5.774400000000D+05 0.000000000000D+00
 4 23 12 09 22 00  0.0 2.352073788643D-04 1.011812855722D-11 0.000000000000D+00
    1.800000000000D+01 8.437500000000D-01 4.772341644328D-09 3.332121483320D-01
    5.401670932770D-08 2.743444987573D-03 5.356967449188D-06 5.153592611313D+03
    5.976000000000D+05 3.725290298462D-08 9.955059733339D-01 2.607703208923D-08
    9.636060907929D-01 2.765312500000D+02-3.046463061255D+00-8.169626012001D-09
    1.839362331110D-10 1.000000000000D+00 2.291000000000D+03 0.000000000000D+00
    2.000000000000D+00 0.000000000000D+00-4.656612873077D-09 5.300000000000D+02
    5.904000000000D+05 0.000000000000D+00
 5 23 12 09 22 00  0.0-1.535126939416D-04-1.477928890381D-12 0.000000000000D+00
    4.400000000000D+01-4.571875000000D+01 4.070883854367D-09 9.154067495198D-01
   -2.276152372360D-06 5.816277698614D-03 1.113116741180D-05 5.153773923874D+03
    5.976000000000D+05-5.029141902924D-08-1.330589824407D-01-1.862645149231D-08
    9.692552864703D-01 1.740937500000D+02 1.238530902972D+00-7.782109870398D-09
    3.425142670940D-10 1.000000000000D+00 2.291000000000D+03 0.000000000000D+00
    2.000000000000D+00 0.000000000000D+00-1.117587089539D-08 4.400000000000D+01
    5.904000000000D+05 0.000000000000D+00
 6 23 12 09 18 00  0.0 4.829545505345D-04-1.136868377216D-11 0.000000000000D+00
    8.600000000000D+01-1.106875000000D+02 3.739441477033D-09 2.815944979617D+00
   -5.614012479782D-06 3.077262430452D-03 6.394460797310D-06 5.153793571472D+03
    5.832000000000D+05 1.490116119385D-08-1.121016143416D+00-3.911554813385D-08
    9.895086207087D-01 2.740000000000D+02-8.204763203149D-01-7.733893576282D-09
   -2.782258749387D-10 1.000000000000D+00 2.291000000000D+03 0.000000000000D+00
    2.000000000000D+00 0.000000000000D+00 3.725290298462D-09 8.600000000000D+01
    5.760000000000D+05 0.000000000000D+00
 7 23 12 10 00 00  0.0-7.874332368374D-06-9.663381206337D-12 0.000000000000D+00
    5.300000000000D+01-9.156250000000D+00 4.779127641278D-09-1.207728116827D+00
   -2.440065145493D-07 1.769062818494D-02 8.391216397285D-06 5.153691221237D+03
    0.000000000000D+00 3.539025783539D-07 1.889249119495D+00 3.520399332047D-07
    9.499321823398D-01 2.080312500000D+02-2.163055068520D+00-8.072479108300D-09
   -4.385896975928D-10 1.000000000000D+00 2.292000000000D+03 0.000000000000D+00
    2.000000000000D+00 0.000000000000D+00-1.117587089539D-08 5.300000000000D+01
   -7.200000000000D+03 0.000000000000D+00
 8 23 12 09 23 59 44.0-1.561758108437D-04-1.932676241267D-12 0.000000000000D+00
    1.300000000000D+01 5.753125000000D+01 4.973421448680D-09 1.601856781090D+00
    3.168359398842D-06 8.975733304396D-03 1.877546310425D-06 5.153560672760D+03
    6.047840000000D+05 4.842877388000D-08-2.211515495320D+00 2.048909664154D-07
    9.558086013791D-01 3.402812500000D+02 2.806455284585D-01-8.610358655999D-09
    3.214419607765D-11 1.000000000000D+00 2.291000000000D+03 0.000000000000D+00
    2.000000000000D+00 0.000000000000D+00 5.122274160385D-09 1.300000000000D+01
    5.985900000000D+05 0.000000000000D+00
 9 23 12 09 22 00  0.0 2.186512574553D-05 1.159605744760D-11 0.000000000000D+00
    1.010000000000D+02 3.718750000000D+00 4.892703800752D-09 1.067806632489D+00
    1.490116119385D-07 2.966023283079D-03 5.517154932022D-06 5.153751451492D+03
    5.976000000000D+05 1.676380634308D-08 9.372785612314D-01-5.587935447693D-08
    9.570977759926D-01 2.696875000000D+02 1.994718501244D+00-8.224628303067D-09
    2.357241045694D-10 1.000000000000D+00 2.291000000000D+03 0.000000000000D+00
    2.000000000000D+00 0.000000000000D+00 1.396983861923D-09 1.010000000000D+02
    5.904000000000D+05 0.000000000000D+00
10 23 12 09 23 59 44.0-6.466591730714D-05-1.477928890381D-12 0.000000000000D+00
    3.500000000000D+01-4.650000000000D+01 3.726226640868D-09-2.617907136215D+00
   -2.441927790642D-06 9.199162479490D-03 1.104921102524D-05 5.153689773560D+03
    6.047840000000D+05 9.313225746155D-08-8.659987292374D-02-9.872019290924D-08
    9.819654186412D-01 1.770937500000D+02-2.414095079081D+00-7.391022151454D-09
    4.385896975928D-10 1.000000000000D+00 2.291000000000D+03 0.000000000000D+00
    2.000000000000D+00 0.000000000000D+00 2.328306436539D-09 3.500000000000D+01
    6.010500000000D+05 0.000000000000D+00
11 23 12 09 20 00  0.0-4.941946826875D-04-1.534772309242D-11 0.000000000000D+00
    1.690000000000D+02-1.212187500000D+02 4.280535444340D-09-1.215913377547D+00
   -6.286427378654D-06 1.284479512833D-03 6.614252924919D-06 5.153638681412D+03
    5.904000000000D+05 1.136213541031D-07-1.084199166459D+00-4.842877388000D-08
    9.659170215210D-01 2.588437500000D+02-2.538520321321D+00-8.053192590653D-09
   -3.150131215609D-10 1.000000000000D+00 2.291000000000D+03 0.000000000000D+00
    2.000000000000D+00 0.000000000000D+00-8.381903171539D-09 9.370000000000D+02
    5.832000000000D+05 0.000000000000D+00
12 23 12 09 20 00  0.0-4.557222127914D-04-3.979039320257D-12 0.000000000000D+00
    9.300000000000D+01 1.035000000000D+02 4.256963033883D-09 2.299144005925D+00
    5.243346095085D-06 8.795622969046D-03 9.462237358093D-06 5.153752946854D+03
    5.904000000000D+05 4.097819328308D-08 3.124800535251D+00-1.396983861923D-07
    9.641598901352D-01 1.937812500000D+02 1.396369422357D+00-7.755680198068D-09
    3.750156209059D-11 1.000000000000D+00 2.291000000000D+03 0.000000000000D+00
    2.000000000000D+00 0.000000000000D+00-1.257285475731D-08 9.300000000000D+01
    5.832000000000D+05 0.000000000000D+00
13 23 12 09 16 00  0.0 6.038779392838D-04 3.865352482535D-12 0.000000000000D+00
    1.500000000000D+01-5.687500000000D+00 4.723411034743D-09-2.900830137002D+00
   -4.339963197708D-07 7.731433724985D-03 5.558133125305D-06 5.153653942108D+03
    5.760000000000D+05 8.195638656616D-08 1.100807428179D+00-1.713633537292D-07
    9.702864593885D-01 2.774062500000D+02 9.543601764292D-01-7.999976088258D-09
    1.121475285376D-10 1.000000000000D+00 2.291000000000D+03 0.000000000000D+00
    2.000000000000D+00 0.000000000000D+00-1.117587089539D-08 1.500000000000D+01
    5.688000000000D+05 0.000000000000D+00
14 23 12 10 00 00  0.0 2.664593048394D-04 1.057287590811D-11 0.000000000000D+00
    8.600000000000D+01 1.096250000000D+02 4.629121392915D-09-1.919291953345D+00
    5.587935447693D-06 3.731577307917D-03 9.095296263695D-06 5.153685445786D+03
    0.000000000000D+00-1.117587089539D-08 2.962530611714D+00-2.421438694000D-08
    9.474809855633D-01 1.991875000000D+02-2.955341052537D+00-8.013905239892D-09
    1.232194182976D-10 1.000000000000D+00 2.292000000000D+03 0.000000000000D+00
    2.000000000000D+00 0.000000000000D+00-7.916241884232D-09 8.600000000000D+01
   -1.290000000000D+03 0.000000000000D+00
15 23 12 10 00 00  0.0 1.053549349308D-04 3.865352482535D-12 0.000000000000D+00
    1.830000000000D+02 1.190625000000D+01 5.502372053025D-09 6.199101872790D-01
    7.357448339462D-07 1.545197074302D-02 6.200745701790D-06 5.153569274902D+03
    0.000000000000D+00-2.309679985046D-07 6.932930678791D-01-5.587935447693D-08
    9.338080835978D-01 2.505000000000D+02 1.279475345295D+00-8.698576616346D-09
    2.164375869228D-10 1.000000000000D+00 2.292000000000D+03 0.000000000000D+00
    2.000000000000D+00 0.000000000000D+00-1.024454832077D-08 1.830000000000D+02
   -7.200000000000D+03 0.000000000000D+00
